[{"OBJECT_NAME":"ION SCV-015","OBJECT_ID":"2023-185H","EPOCH":"2026-03-09T22:36:51.209568","MEAN_MOTION":15.3163624,"ECCENTRICITY":0.00109059,"INCLINATION":97.5772,"RA_OF_ASC_NODE":155.3582,"ARG_OF_PERICENTER":92.3805,"MEAN_ANOMALY":267.8685,"EPHEMERIS_TYPE":0,"CLASSIFICATION_TYPE":"U","NORAD_CAT_ID":58469,"ELEMENT_SET_NO":999,"REV_AT_EPOCH":12588,"BSTAR":0.00030895808,"MEAN_MOTION_DOT":9.376e-5,"MEAN_MOTION_DDOT":0},{"OBJECT_NAME":"STARLINK-32642","OBJECT_ID":"2024-229V","EPOCH":"2026-03-09T13:21:28.450656","MEAN_MOTION":15.27582698,"ECCENTRICITY":0.00016186,"INCLINATION":42.9996,"RA_OF_ASC_NODE":271.2385,"ARG_OF_PERICENTER":234.8632,"MEAN_ANOMALY":125.2068,"EPHEMERIS_TYPE":0,"CLASSIFICATION_TYPE":"U","NORAD_CAT_ID":62211,"ELEMENT_SET_NO":999,"REV_AT_EPOCH":7054,"BSTAR":0.0010623194,"MEAN_MOTION_DOT":0.00029089,"MEAN_MOTION_DDOT":0}]
